#dP2018  6 21  0  0  0.00000000      96 __u+U ITR00 FIT  IAC
## 2006 345600.00000000   900.00000000 58290 0.0000000000000
+   86   C01C02C03C04C05C06C07C08C09C10C11C12C13C14E01E02E03
+        E04E05E07E08E09E11E12E14E18E19E24E26E30G01G02G03G04
+        G05G06G07G08G09G10G11G12G13G14G15G16G17G18G19G20G21
+        G22G23G24G25G26G27G28G29G30G31G32J01R01R02R03R04R05
+        R07R08R09R10R11R13R14R15R16R17R18R19R20R21R22R23R24
+        R26  0  0  0  0  0  0  0  0  0  0  0  0  0  0  0  0
++         0  0  0  0  0  0  0  0  0  0  0  0  0  0  0  0  0
++         0  0  0  0  0  0  0  0  0  0  0  0  0  0  0  0  0
++         0  0  0  0  0  0  0  0  0  0  0  0  0  0  0  0  0
++         0  0  0  0  0  0  0  0  0  0  0  0  0  0  0  0  0
++         0  0  0  0  0  0  0  0  0  0  0  0  0  0  0  0  0
++         0  0  0  0  0  0  0  0  0  0  0  0  0  0  0  0  0
%c M  cc GPS ccc cccc cccc cccc cccc ccccc ccccc ccccc ccccc
%c cc cc ccc ccc cccc cccc cccc cccc ccccc ccccc ccccc ccccc
%f  0.0000000  0.000000000  0.00000000000  0.000000000000000
%f  0.0000000  0.000000000  0.00000000000  0.000000000000000
%i    0    0    0    0      0      0      0      0         0
%i    0    0    0    0      0      0      0      0         0
/*                                                          
/*   RSA / INFORMATION & ANALYSIS CENTER (IAC) OF MCC       
/*   ULTRA-RAPID DETERMINATION                              
/* PCV:IGS14_2000 OL/AL:FES2004  NONE     YN ORB:CoN CLK:CoN
*  2018 06 21 10 30  0.00000000
PC01 -32291.791135  27094.863236   -452.614387   -139.398035
PC02   4466.625705  41904.666660   1295.981354    130.047326
PC03 -14866.125207  39490.374732    354.017741    282.998328
PC04      0.000000      0.000000      0.000000 999999.999999
PC05  21876.651840  36041.786073    951.413854    352.131933
PC06 -21462.191677  36398.672674  -2417.921787     63.190066
PC07  -8938.775671  28875.973747 -29098.333222     99.608102
PC08 -19743.659010  19036.841320  32018.760398    401.337343
PC09 -11570.048426  37029.602963 -16708.118666    -18.312382
PC10   5477.304338  37156.561289 -18644.342810   -326.361119
PC11  21958.205527   2246.926601  17168.355638   -558.821573
PC12   4716.934735  14841.228624  23202.616862    485.884975
PC13  -5053.409926  23280.914435  34781.796688   -385.842489
PC14  14130.788923  11447.982395 -21115.276425    114.115202
PE01 -14132.152558 -25555.598224   4868.908493   -373.373865
PE02  14142.237666  25546.816542  -4850.102340     16.959732
PE03   3580.387058  23015.937571 -18248.022457    -45.870265
PE04 -16405.556829  -5356.518466  24062.050194    -59.461390
PE05 -11398.645708  27263.240609  -1715.801382    242.043405
PE07  19645.610688 -15562.300929 -15739.098239     11.496589
PE08  16315.326011   5134.488068 -24146.220588   6559.763428
PE09 -19428.959397  15714.407391  15872.073268   6756.974743
PE11 -27190.357003   8267.033374   8312.929681   1452.166200
PE12 -27130.434268  -4694.452188 -10895.710797   4430.878303
PE14  -1950.631805 -21894.251122 -22518.258331   6563.474264
PE18  -8577.477833  19804.753819  13086.553306   6116.643067
PE19  -2140.478687 -24056.942480  17121.948177     23.458701
PE24 -16268.311534   4561.427339 -24315.926861   6641.603040
PE26  11618.811046 -16038.215417 -21998.868439   5797.429677
PE30  21498.571014  14911.735119  13830.919197   5740.685910
PG01 -20917.953589 -13905.446325  -9245.959525    -58.336788
PG02    262.209341  16137.090763  21687.096281     79.682489
PG03 -13182.143655 -18894.774503  13253.336002     92.891714
PG04   9428.377554 -16721.042841  17976.766466     71.294478
PG05   1664.205307  25795.092085   5493.212035     -5.803232
PG06 -15447.508684   8990.072349  19686.254433    394.206893
PG07 -25679.155443  -5107.585921  -5525.198732    171.713643
PG08  -4221.852939 -15591.950601 -21008.243593   -105.530930
PG09 -20575.333261   2654.836493  16562.418238    514.541603
PG10  12334.951676 -11350.332067 -20520.295770    188.512019
PG11 -17725.937249 -11397.337550 -16632.168625   -733.100070
PG12   9694.139915  22640.602600   9990.937414    325.995394
PG13  -5502.043768  18803.329317 -18039.044622    -93.269533
PG14  16845.200661 -19116.404340   7462.208386    -97.455539
PG15   8060.953342  14328.851385 -21026.688306   -352.235058
PG16   1144.539544 -25555.806092   6115.124729     20.646380
PG17 -21407.624411  15459.991838  -1732.569548    -86.072363
PG18 -13766.129817 -16268.078450 -16427.057566     24.294121
PG19 -18630.962397  18080.621196   5718.144104   -426.690391
PG20  16258.241202  -1029.623416 -21132.683447    510.972248
PG21  25057.726113   1218.857325  -7878.875875   -378.392458
PG22 -10685.319511 -23695.176271   5755.283696   -433.016537
PG23 -13797.206242  -8460.750791  21404.343184   -215.589901
PG24  18491.483622  14818.441549 -12400.152450    -51.492144
PG25  15252.266252   9997.535875  19208.708130   -604.268888
PG26   6565.376573 -20615.491806  15305.136125   -108.615337
PG27   7806.820131 -20397.962731 -15009.178968    364.975949
PG28 -13202.689269   7768.941613 -21088.160074    725.374890
PG29  19304.911258    366.775635  18208.208818    428.579736
PG30 -22196.256794   2467.938158 -14493.294074     59.930272
PG31  14289.281279  -9732.776127  20310.168059    113.091592
PG32  20916.772672 -16057.325713  -2711.069142   -490.146281
PJ01 -26443.054177  26685.544612  24224.755329   -210.642339
PR01  -2990.037173  24543.380861  -6230.122141     27.965335
PR02   7081.558580  12367.643362 -21123.323716    315.885717
PR03  12251.946568  -6459.533076 -21364.950316    135.587526
PR04  10003.417818 -21765.654998  -8724.159560    265.622194
PR05   1791.644219 -24053.814691   8316.264492    -27.834078
PR07 -12336.762021   6949.133619  21266.421011    -40.569600
PR08 -10301.737323  21362.945242   9451.163092     22.620817
PR09 -18873.767135 -16911.573782  -3208.914462     22.812492
PR10 -17099.506519  -5461.478719 -18185.656444     26.479617
PR11  -5379.728353  10052.624723 -22801.754180    -32.106956
PR13  19104.604994  16583.941223   3195.927959    -11.657937
PR14  17279.686196   5320.518903  17994.367302     28.378631
PR15   8467.747597  -6585.750794  23150.255215    -12.002936
PR16  -9126.008511 -18646.296099  14724.606369     95.358715
PR17  24735.426650  -4417.440242   4492.563443    141.882078
PR18  19432.464589 -10965.331762 -12292.395210    200.073481
PR19   3510.890206 -11354.433743 -22573.199572    -55.130899
PR20 -16015.168446  -5027.805650 -19224.959696   -342.385955
PR21 -24730.237545   4621.797325  -4148.971657     10.840865
PR22 -18126.911251  11330.888334  14018.887670    -52.890319
PR23    956.259693  10618.212143  23161.878012    161.062071
PR24  16860.540905   4297.686287  18615.874230   -167.873367
PR26 -15325.516296  -5194.914116 -19701.881225     28.197487
EOF
